start=new Date('2023-05-09T00:00:00.000Z').valueOf();
sats=[{"TIME_SYSTEM":"UTC","LAUNCH_DATE":"2022-05-13","MEAN_ELEMENT_THEORY":"SGP4","MEAN_ANOMALY":"263.4282","ELEMENT_SET_NO":"999","TLE_LINE2":"2 52551  53.2174 100.2486 0001168  96.6843 263.4282 15.08834659 55034","MEAN_MOTION_DOT":"0.00000154","FILE":"3904305","CLASSIFICATION_TYPE":"U","COUNTRY_CODE":"US","SEMIMAJOR_AXIS":"6917.897","CENTER_NAME":"EARTH","EPHEMERIS_TYPE":"0","OBJECT_TYPE":"PAYLOAD","EPOCH":"2023-05-08T14:41:45.275712","INCLINATION":"53.2174","RA_OF_ASC_NODE":"100.2486","OBJECT_NAME":"STARLINK-3969","ECCENTRICITY":"0.00011680","BSTAR":"0.00002775100000","MEAN_MOTION_DDOT":"0.0000000000000","TLE_LINE1":"1 52551U 22051U   23128.61232958  .00000154  00000-0  27751-4 0  9996","PERIAPSIS":"538.954","GP_ID":"231475712","PERIOD":"95.438","RCS_SIZE":"LARGE","REF_FRAME":"TEME","APOAPSIS":"540.570","DECAY_DATE":null,"NORAD_CAT_ID":"52551","MEAN_MOTION":"15.08834659","ARG_OF_PERICENTER":"96.6843","SITE":"AFWTR","OBJECT_ID":"2022-051U","REV_AT_EPOCH":"5503"},{"OBJECT_NAME":"STARLINK-3966","RA_OF_ASC_NODE":"102.1188","BSTAR":"-0.00002505300000","ECCENTRICITY":"0.00014540","MEAN_MOTION_DDOT":"0.0000000000000","PERIOD":"95.437","RCS_SIZE":"LARGE","REF_FRAME":"TEME","TLE_LINE1":"1 52552U 22051V   23128.19744425 -.00000687  00000-0 -25053-4 0  9993","PERIAPSIS":"538.732","GP_ID":"231474464","DECAY_DATE":null,"APOAPSIS":"540.744","SITE":"AFWTR","ARG_OF_PERICENTER":"98.4348","NORAD_CAT_ID":"52552","MEAN_MOTION":"15.08842344","REV_AT_EPOCH":"5497","OBJECT_ID":"2022-051V","LAUNCH_DATE":"2022-05-13","MEAN_ANOMALY":"261.6809","TIME_SYSTEM":"UTC","MEAN_ELEMENT_THEORY":"SGP4","ELEMENT_SET_NO":"999","TLE_LINE2":"2 52552  53.2156 102.1188 0001454  98.4348 261.6809 15.08842344 54970","FILE":"3904305","MEAN_MOTION_DOT":"-0.00000687","SEMIMAJOR_AXIS":"6917.873","CLASSIFICATION_TYPE":"U","COUNTRY_CODE":"US","EPHEMERIS_TYPE":"0","CENTER_NAME":"EARTH","OBJECT_TYPE":"PAYLOAD","INCLINATION":"53.2156","EPOCH":"2023-05-08T04:44:19.183200"},{"FILE":"3904305","MEAN_MOTION_DOT":"0.00000340","TLE_LINE2":"2 52553  53.2168 102.0492 0001083  92.1314 267.9802 15.08832507 54975","TIME_SYSTEM":"UTC","LAUNCH_DATE":"2022-05-13","MEAN_ANOMALY":"267.9802","ELEMENT_SET_NO":"999","MEAN_ELEMENT_THEORY":"SGP4","EPOCH":"2023-05-08T05:04:08.642496","INCLINATION":"53.2168","OBJECT_TYPE":"PAYLOAD","EPHEMERIS_TYPE":"0","CENTER_NAME":"EARTH","SEMIMAJOR_AXIS":"6917.903","CLASSIFICATION_TYPE":"U","COUNTRY_CODE":"US","MEAN_MOTION_DDOT":"0.0000000000000","BSTAR":"0.00003944200000","ECCENTRICITY":"0.00010830","RA_OF_ASC_NODE":"102.0492","OBJECT_NAME":"STARLINK-3858","REV_AT_EPOCH":"5497","OBJECT_ID":"2022-051W","SITE":"AFWTR","ARG_OF_PERICENTER":"92.1314","NORAD_CAT_ID":"52553","MEAN_MOTION":"15.08832507","DECAY_DATE":null,"APOAPSIS":"540.518","PERIOD":"95.438","RCS_SIZE":"LARGE","REF_FRAME":"TEME","TLE_LINE1":"1 52553U 22051W   23128.21121114  .00000340  00000-0  39442-4 0  9992","GP_ID":"231474709","PERIAPSIS":"539.019"},{"RA_OF_ASC_NODE":"105.0966","OBJECT_NAME":"STARLINK-3770","BSTAR":"0.00001726000000","ECCENTRICITY":"0.00015030","MEAN_MOTION_DDOT":"0.0000000000000","REF_FRAME":"TEME","PERIOD":"95.438","RCS_SIZE":"LARGE","TLE_LINE1":"1 52554U 22051X   23128.64683075 -.00000013  00000-0  17260-4 0  9991","PERIAPSIS":"538.718","GP_ID":"231475465","DECAY_DATE":null,"APOAPSIS":"540.798","ARG_OF_PERICENTER":"90.6380","SITE":"AFWTR","MEAN_MOTION":"15.08835880","NORAD_CAT_ID":"52554","REV_AT_EPOCH":"5496","OBJECT_ID":"2022-051X","LAUNCH_DATE":"2022-05-13","MEAN_ANOMALY":"269.4784","TIME_SYSTEM":"UTC","MEAN_ELEMENT_THEORY":"SGP4","ELEMENT_SET_NO":"999","TLE_LINE2":"2 52554  53.2162 105.0966 0001503  90.6380 269.4784 15.08835880 54964","FILE":"3904305","MEAN_MOTION_DOT":"-0.00000013","SEMIMAJOR_AXIS":"6917.893","COUNTRY_CODE":"US","CLASSIFICATION_TYPE":"U","EPHEMERIS_TYPE":"0","CENTER_NAME":"EARTH","OBJECT_TYPE":"PAYLOAD","INCLINATION":"53.2162","EPOCH":"2023-05-08T15:31:26.176800"},{"MEAN_MOTION_DDOT":"0.0000000000000","ECCENTRICITY":"0.00012240","BSTAR":"0.00011180000000","OBJECT_NAME":"STARLINK-3949","RA_OF_ASC_NODE":"101.1946","OBJECT_ID":"2022-051Y","REV_AT_EPOCH":"5500","NORAD_CAT_ID":"52555","MEAN_MOTION":"15.08836046","SITE":"AFWTR","ARG_OF_PERICENTER":"98.7084","APOAPSIS":"540.604","DECAY_DATE":null,"GP_ID":"231476213","TLE_LINE1":"1 52555U 22051Y   23128.40351990  .00001492  00000-0  11180-3 0  9999","PERIAPSIS":"538.911","PERIOD":"95.438","RCS_SIZE":"LARGE","REF_FRAME":"TEME","MEAN_MOTION_DOT":"0.00001492","FILE":"3904305","TLE_LINE2":"2 52555  53.2163 101.1946 0001224  98.7084 261.4047 15.08836046 55006","LAUNCH_DATE":"2022-05-13","ELEMENT_SET_NO":"999","MEAN_ELEMENT_THEORY":"SGP4","TIME_SYSTEM":"UTC","MEAN_ANOMALY":"261.4047","INCLINATION":"53.2163","EPOCH":"2023-05-08T09:41:04.119360","OBJECT_TYPE":"PAYLOAD","CENTER_NAME":"EARTH","EPHEMERIS_TYPE":"0","CLASSIFICATION_TYPE":"U","COUNTRY_CODE":"US","SEMIMAJOR_AXIS":"6917.892"},{"MEAN_MOTION_DDOT":"0.0000000000000","OBJECT_NAME":"STARLINK-3763","RA_OF_ASC_NODE":"101.2438","BSTAR":"0.00066728000000","ECCENTRICITY":"0.00052060","ARG_OF_PERICENTER":"53.8379","SITE":"AFWTR","MEAN_MOTION":"15.17945801","NORAD_CAT_ID":"52556","REV_AT_EPOCH":"5499","OBJECT_ID":"2022-051Z","REF_FRAME":"TEME","PERIOD":"94.865","RCS_SIZE":"LARGE","PERIAPSIS":"508.465","TLE_LINE1":"1 52556U 22051Z   23128.34024421  .00013424  00000-0  66728-3 0  9995","GP_ID":"231474965","DECAY_DATE":null,"APOAPSIS":"515.639","FILE":"3904305","MEAN_MOTION_DOT":"0.00013424","LAUNCH_DATE":"2022-05-13","TIME_SYSTEM":"UTC","MEAN_ANOMALY":"306.3098","MEAN_ELEMENT_THEORY":"SGP4","ELEMENT_SET_NO":"999","TLE_LINE2":"2 52556  53.2171 101.2438 0005206  53.8379 306.3098 15.17945801 54998","OBJECT_TYPE":"PAYLOAD","INCLINATION":"53.2171","EPOCH":"2023-05-08T08:09:57.099744","SEMIMAJOR_AXIS":"6890.187","COUNTRY_CODE":"US","CLASSIFICATION_TYPE":"U","EPHEMERIS_TYPE":"0","CENTER_NAME":"EARTH"},{"RA_OF_ASC_NODE":"99.4524","OBJECT_NAME":"STARLINK-3943","BSTAR":"0.00013148000000","ECCENTRICITY":"0.00011240","MEAN_MOTION_DDOT":"0.0000000000000","RCS_SIZE":"LARGE","PERIOD":"95.438","REF_FRAME":"TEME","PERIAPSIS":"538.985","TLE_LINE1":"1 52557U 22051AA  23128.78896563  .00001805  00000-0  13148-3 0  9996","GP_ID":"231475209","DECAY_DATE":null,"APOAPSIS":"540.541","ARG_OF_PERICENTER":"95.5829","SITE":"AFWTR","NORAD_CAT_ID":"52557","MEAN_MOTION":"15.08834222","REV_AT_EPOCH":"5506","OBJECT_ID":"2022-051AA","MEAN_ELEMENT_THEORY":"SGP4","LAUNCH_DATE":"2022-05-13","ELEMENT_SET_NO":"999","TIME_SYSTEM":"UTC","MEAN_ANOMALY":"264.5292","TLE_LINE2":"2 52557  53.2169  99.4524 0001124  95.5829 264.5292 15.08834222 55062","FILE":"3904305","MEAN_MOTION_DOT":"0.00001805","SEMIMAJOR_AXIS":"6917.898","CLASSIFICATION_TYPE":"U","COUNTRY_CODE":"US","EPHEMERIS_TYPE":"0","CENTER_NAME":"EARTH","OBJECT_TYPE":"PAYLOAD","INCLINATION":"53.2169","EPOCH":"2023-05-08T18:56:06.630432"},{"REF_FRAME":"TEME","RCS_SIZE":"LARGE","PERIOD":"95.437","TLE_LINE1":"1 52558U 22051AB  23128.59116614  .00000568  00000-0  53752-4 0  9999","GP_ID":"231475966","PERIAPSIS":"538.997","DECAY_DATE":null,"APOAPSIS":"540.486","ARG_OF_PERICENTER":"85.2367","SITE":"AFWTR","MEAN_MOTION":"15.08841343","NORAD_CAT_ID":"52558","REV_AT_EPOCH":"5516","OBJECT_ID":"2022-051AB","OBJECT_NAME":"STARLINK-3954","RA_OF_ASC_NODE":"90.3447","BSTAR":"0.00005375200000","ECCENTRICITY":"0.00010760","MEAN_MOTION_DDOT":"0.0000000000000","SEMIMAJOR_AXIS":"6917.876","COUNTRY_CODE":"US","CLASSIFICATION_TYPE":"U","EPHEMERIS_TYPE":"0","CENTER_NAME":"EARTH","OBJECT_TYPE":"PAYLOAD","EPOCH":"2023-05-08T14:11:16.754496","INCLINATION":"53.2160","LAUNCH_DATE":"2022-05-13","MEAN_ANOMALY":"274.8748","MEAN_ELEMENT_THEORY":"SGP4","TIME_SYSTEM":"UTC","ELEMENT_SET_NO":"999","TLE_LINE2":"2 52558  53.2160  90.3447 0001076  85.2367 274.8748 15.08841343 55160","FILE":"3904305","MEAN_MOTION_DOT":"0.00000568"},{"MEAN_MOTION_DOT":"0.00001248","FILE":"3904305","TLE_LINE2":"2 52559  53.2162  90.4775 0001140  91.8651 268.2472 15.08838677 55166","LAUNCH_DATE":"2022-05-13","TIME_SYSTEM":"UTC","MEAN_ANOMALY":"268.2472","MEAN_ELEMENT_THEORY":"SGP4","ELEMENT_SET_NO":"999","EPOCH":"2023-05-08T14:27:12.866400","INCLINATION":"53.2162","OBJECT_TYPE":"PAYLOAD","CENTER_NAME":"EARTH","EPHEMERIS_TYPE":"0","CLASSIFICATION_TYPE":"U","COUNTRY_CODE":"US","SEMIMAJOR_AXIS":"6917.884","MEAN_MOTION_DDOT":"0.0000000000000","ECCENTRICITY":"0.00011400","BSTAR":"0.00009649500000","OBJECT_NAME":"STARLINK-3953","RA_OF_ASC_NODE":"90.4775","OBJECT_ID":"2022-051AC","REV_AT_EPOCH":"5516","NORAD_CAT_ID":"52559","MEAN_MOTION":"15.08838677","SITE":"AFWTR","ARG_OF_PERICENTER":"91.8651","APOAPSIS":"540.538","DECAY_DATE":null,"GP_ID":"231475713","TLE_LINE1":"1 52559U 22051AC  23128.60223225  .00001248  00000-0  96495-4 0  9996","PERIAPSIS":"538.961","PERIOD":"95.438","RCS_SIZE":"LARGE","REF_FRAME":"TEME"},{"FILE":"3904305","MEAN_MOTION_DOT":"0.00000323","TLE_LINE2":"2 52560  53.2171  90.3598 0001232  85.6413 274.4720 15.08838772 55160","LAUNCH_DATE":"2022-05-13","ELEMENT_SET_NO":"999","TIME_SYSTEM":"UTC","MEAN_ELEMENT_THEORY":"SGP4","MEAN_ANOMALY":"274.4720","INCLINATION":"53.2171","EPOCH":"2023-05-08T14:05:59.053056","OBJECT_TYPE":"PAYLOAD","EPHEMERIS_TYPE":"0","CENTER_NAME":"EARTH","SEMIMAJOR_AXIS":"6917.884","COUNTRY_CODE":"US","CLASSIFICATION_TYPE":"U","MEAN_MOTION_DDOT":"0.0000000000000","BSTAR":"0.00003835300000","ECCENTRICITY":"0.00012320","OBJECT_NAME":"STARLINK-3956","RA_OF_ASC_NODE":"90.3598","REV_AT_EPOCH":"5516","OBJECT_ID":"2022-051AD","SITE":"AFWTR","ARG_OF_PERICENTER":"85.6413","MEAN_MOTION":"15.08838772","NORAD_CAT_ID":"52560","DECAY_DATE":null,"APOAPSIS":"540.601","REF_FRAME":"TEME","PERIOD":"95.438","RCS_SIZE":"LARGE","PERIAPSIS":"538.897","TLE_LINE1":"1 52560U 22051AD  23128.58748904  .00000323  00000-0  38353-4 0  9993","GP_ID":"231474465"}];
